GLOBALSTAR M068         
1 32266U 07048D   24182.74533049 -.00000056  00000+0  26774-3 0  9990
2 32266  51.9897 293.5433 0001518 102.8907  49.2775 12.62792785773449
GLOBALSTAR M079         
1 37188U 10054A   24182.46229558 -.00000083  00000+0  11802-3 0  9991
2 37188  52.0027 130.4911 0000242 356.1876 159.7935 12.62271373632035
GLOBALSTAR M074         
1 37189U 10054B   24182.86086255 -.00000089  00000+0  83230-4 0  9992
2 37189  52.0005 128.6561 0000442  36.3116  10.7644 12.62269894632766
GLOBALSTAR M076         
1 37190U 10054C   24182.43620736 -.00000097  00000+0  36620-4 0  9995
2 37190  52.0017 130.0866 0000587 346.7133 170.6136 12.62262309632354
GLOBALSTAR M077         
1 37191U 10054D   24182.50519025 -.00000093  00000+0  60767-4 0  9997
2 37191  52.0081  86.6319 0000716  47.7956 123.1661 12.62274205632736
GLOBALSTAR M075         
1 37192U 10054E   24182.45056156 -.00000089  00000+0  81798-4 0  9995
2 37192  51.9918 172.4965 0000069  55.6365 106.8431 12.62261227631583
GLOBALSTAR M073         
1 37193U 10054F   24182.90767531 -.00000096  00000+0  40780-4 0  9996
2 37193  52.0065  84.6574 0000634  43.5804  35.6841 12.62266495633523
GLOBALSTAR M083         
1 37739U 11033A   24182.90603443 -.00000081  00000+0  12656-3 0  9995
2 37739  51.9872  33.8716 0000800  94.4395 279.3127 12.62261518602859
GLOBALSTAR M088         
1 37740U 11033B   24182.64202028 -.00000092  00000+0  66942-4 0  9992
2 37740  51.9747 300.4642 0000773 133.5053 239.8310 12.62264667598002
GLOBALSTAR M091         
1 37741U 11033C   24182.60431965 -.00000094  00000+0  56299-4 0  9999
2 37741  51.9996 263.5083 0000782 154.5526 345.9777 12.62264308598788
GLOBALSTAR M085         
1 37742U 11033D   24182.51343215 -.00000089  00000+0  84197-4 0  9992
2 37742  51.9843 215.1318 0000422 174.1201 334.6899 12.62263065599288
GLOBALSTAR M081         
1 37743U 11033E   24182.54106213 -.00000069  00000+0  19207-3 0  9998
2 37743  51.9932 217.6190 0000437 201.0805 312.4558 12.62266617599438
GLOBALSTAR M089         
1 37744U 11033F   24182.42302810 -.00000080  00000+0  13484-3 0  9991
2 37744  51.9902 172.2728 0000403 343.0742 172.4305 12.62265522600261
GLOBALSTAR M084         
1 38040U 11080A   24182.87967338 -.00000097  00000+0  36447-4 0  9997
2 38040  52.0023  37.9815 0000949  61.0042 312.0493 12.62263859578586
GLOBALSTAR M080         
1 38041U 11080B   24182.62053035 -.00000087  00000+0  92663-4 0  9992
2 38041  52.0075  40.2531 0000787  46.1908 349.1329 12.62262411578392
GLOBALSTAR M082         
1 38042U 11080C   24182.55628338 -.00000093  00000+0  60320-4 0  9991
2 38042  52.0092 355.8588 0001348 113.1820 289.4384 12.62270735579263
GLOBALSTAR M092         
1 38043U 11080D   24182.48000745 -.00000105  00000+0 -82925-5 0  9991
2 38043  52.0090  86.4468 0000778  54.4483 122.0784 12.62263051577531
GLOBALSTAR M090         
1 38044U 11080E   24182.83101300 -.00000087  00000+0  93990-4 0  9991
2 38044  51.9903 349.2841 0001018 111.4684 340.0317 12.62264449579283
GLOBALSTAR M086         
1 38045U 11080F   24182.61629285 -.00000092  00000+0  66380-4 0  9994
2 38045  51.9914 350.4603 0000315 190.1527 245.9793 12.62263758579165
GLOBALSTAR M097         
1 39072U 13005A   24182.54737511 -.00000095  00000+0  47202-4 0  9993
2 39072  52.0045 264.8655 0000647 157.2981 202.7915 12.62263976526402
GLOBALSTAR M093         
1 39073U 13005B   24182.75821233 -.00000091  00000+0  68803-4 0  9998
2 39073  51.9803 258.0871 0000699 171.5604 188.5274 12.62275522526506
GLOBALSTAR M094         
1 39074U 13005C   24182.36222626 -.00000089  00000+0  83520-4 0  9997
2 39074  51.9928 173.3201 0000170 222.8871 137.1982 12.62267347527942
GLOBALSTAR M096         
1 39075U 13005D   24182.53374724 -.00000084  00000+0  11162-3 0  9991
2 39075  52.0050 221.0396 0000573 180.7995 179.2871 12.62267401526880
GLOBALSTAR M078         
1 39076U 13005E   24182.58672723 -.00000173  00000+0 -38821-3 0  9998
2 39076  51.9892 305.8675 0001628 118.4365 241.6666 12.62270956525519
GLOBALSTAR M095         
1 39077U 13005F   24182.05838336 -.00000162  00000+0 -32747-3 0  9994
2 39077  51.9816 304.8451 0001299 135.8196 224.2774 12.62262851525305
GLOBALSTAR M087         
1 52888U 22064A   24182.48418397 -.00000091  00000+0  71367-4 0  9994
2 52888  51.9736 162.0146 0009655  39.1051 321.0546 13.37577371 99304
